CAS-2T & KS-1Q          
1 41847U 16066G   20329.44305037  .00000198  00000-0  39122-4 0  9994
2 41847  98.6335  21.3997 0366567 112.0116 252.0436 14.38115662212415
NAYIF-1 (EO-88)         
1 42017U 17008BX  20328.94741700  .00004418  00000-0  16914-3 0  9998
2 42017  97.3435  34.0725 0007688 112.9462 247.2589 15.27043380209889
ZHUHAI-1 02 (CAS-4B)    
1 42759U 17034B   20329.46081272  .00000770  00000-0  60027-4 0  9991
2 42759  43.0174 227.8559 0011391 315.6063 213.2470 15.09964416190155
ZHUHAI-1 01 (CAS-4A)    
1 42761U 17034D   20329.46287622  .00000698  00000-0  55545-4 0  9999
2 42761  43.0177 227.0368 0011753 316.4674 212.3503 15.10043744190151
MAX VALIER SAT          
1 42778U 17036P   20328.89246715  .00002201  00000-0  96520-4 0  9993
2 42778  97.2853  17.9642 0012277 173.4708 186.6692 15.22949365189992
RADFXSAT (FOX-1B)       
1 43017U 17073E   20329.45717877  .00001150  00000-0  95088-4 0  9996
2 43017  97.7159 235.4614 0254813 248.8401 108.5410 14.79164684162817
FOX-1D (AO-92)          
1 43137U 18004AC  20328.94088690  .00002933  00000-0  12219-3 0  9995
2 43137  97.4310  38.9118 0008287 205.7346 154.3480 15.24492226159339
DIWATA-2B               
1 43678U 18084H   20329.39566145  .00000106  00000-0  16274-4 0  9995
2 43678  97.9021  87.9667 0010318  17.2645 342.8913 14.91674208112869
ES'HAIL 2               
1 43700U 18090A   20328.98910385  .00000146  00000-0  00000-0 0  9991
2 43700   0.0135 309.3538 0001799 313.6676 182.2429  1.00270744  7307
FOX-1CLIFF (AO-95)      
1 43770U 18099N   20328.93453359  .00000861  00000-0  83583-4 0  9990
2 43770  97.6907  37.4063 0015079  30.1602 330.0484 14.95103096107747
ITASAT 1                
1 43786U 18099AE  20328.96294930  .00000533  00000-0  53355-4 0  9998
2 43786  97.6927  37.9680 0015719  23.5283 336.6654 14.95429773107775
JY1SAT (JO-97)          
1 43803U 18099AX  20329.15833070  .00000875  00000-0  83790-4 0  9999
2 43803  97.6887  37.9433 0015618  23.3027 336.8898 14.95630274107804
PSAT2 (NO-104)          
1 44354U 19036R   20328.54955573  .00028481  00000-0  40822-3 0  9999
2 44354  28.5318  53.4688 0350296 213.8170 143.9616 15.06995278 77804
BRICSAT2 (NO-103)       
1 44355U 19036S   20329.49288850  .00049978  00000-0  65297-3 0  9999
2 44355  28.5324  27.8633 0315404 255.4315 101.1102 15.15936906 78149
JAISAT-1                
1 44419U 19038F   20328.95184745  .00002375  00000-0  13731-3 0  9996
2 44419  97.5604 288.8861 0019997 303.8538  56.0790 15.13108067 76711
DUCHIFAT-3              
1 44854U 19089C   20329.41449217  .00000736  00000-0  65652-4 0  9994
2 44854  36.9665 232.9327 0009686 278.5779  81.3871 14.99209483 52312
RS-44 & BREEZE-KM R/B   
1 44909U 19096E   20328.92882226  .00000015  00000-0  18290-4 0  9995
2 44909  82.5227 249.3366 0216654 213.4382 145.2883 12.79707868 42589
ORBITAL FACTORY 2 (OF-2)
1 45113U 19071C   20329.39024048  .00004720  00000-0  15177-3 0  9995
2 45113  51.6425 310.5859 0011931 274.9219  85.0401 15.34124045 45678
HUSKYSAT-1              
1 45119U 19071J   20329.34841798  .00005374  00000-0  17038-3 0  9999
2 45119  51.6427 310.3060 0011305 271.0975  88.8712 15.34285691 45660
SALSAT                  
1 46495U 20068K   20329.25983629 -.00000109  00000-0 -34442-5 0  9998
2 46495  97.6735 262.2309 0018645  49.6704 310.6148 15.03254296  8508
